CCSDS_OMM_VERS = 2.0
CREATION_DATE  = 
ORIGINATOR     = 

OBJECT_NAME    = SL-4 R/B
OBJECT_ID      = 2014-021B
CENTER_NAME    = EARTH
REF_FRAME      = TEME
TIME_SYSTEM    = UTC
MEAN_ELEMENT_THEORY = SGP/SGP4

EPOCH          = 2025-12-22T05:45:28.964448
MEAN_MOTION    = 15.36878688
ECCENTRICITY   = .01009776
INCLINATION    = 51.6088
RA_OF_ASC_NODE = 354.4168
ARG_OF_PERICENTER = 180.4562
MEAN_ANOMALY   = 179.6345

EPHEMERIS_TYPE = 0
CLASSIFICATION_TYPE = U
NORAD_CAT_ID   = 39679
ELEMENT_SET_NO = 999
REV_AT_EPOCH   = 64435
BSTAR          = .25619252E-3
MEAN_MOTION_DOT = .10708E-3
MEAN_MOTION_DDOT = 0

CCSDS_OMM_VERS = 2.0
CREATION_DATE  = 
ORIGINATOR     = 

OBJECT_NAME    = ALOS-2
OBJECT_ID      = 2014-029A
CENTER_NAME    = EARTH
REF_FRAME      = TEME
TIME_SYSTEM    = UTC
MEAN_ELEMENT_THEORY = SGP/SGP4

EPOCH          = 2025-12-22T13:11:43.903680
MEAN_MOTION    = 14.79475388
ECCENTRICITY   = .00014101
INCLINATION    = 97.9230
RA_OF_ASC_NODE = 91.2567
ARG_OF_PERICENTER = 97.1247
MEAN_ANOMALY   = 263.0125

EPHEMERIS_TYPE = 0
CLASSIFICATION_TYPE = U
NORAD_CAT_ID   = 39766
ELEMENT_SET_NO = 999
REV_AT_EPOCH   = 62546
BSTAR          = .19585024E-3
MEAN_MOTION_DOT = .1412E-4
MEAN_MOTION_DDOT = 0

CCSDS_OMM_VERS = 2.0
CREATION_DATE  = 
ORIGINATOR     = 

OBJECT_NAME    = YAOGAN-29
OBJECT_ID      = 2015-069A
CENTER_NAME    = EARTH
REF_FRAME      = TEME
TIME_SYSTEM    = UTC
MEAN_ELEMENT_THEORY = SGP/SGP4

EPOCH          = 2025-12-22T14:29:27.089664
MEAN_MOTION    = 14.82890830
ECCENTRICITY   = .00006102
INCLINATION    = 98.0205
RA_OF_ASC_NODE = 19.8067
ARG_OF_PERICENTER = 173.1464
MEAN_ANOMALY   = 186.9757

EPHEMERIS_TYPE = 0
CLASSIFICATION_TYPE = U
NORAD_CAT_ID   = 41038
ELEMENT_SET_NO = 999
REV_AT_EPOCH   = 54445
BSTAR          = -.3167513E-5
MEAN_MOTION_DOT = -.8E-6
MEAN_MOTION_DDOT = 0

CCSDS_OMM_VERS = 2.0
CREATION_DATE  = 
ORIGINATOR     = 

OBJECT_NAME    = ASTRO-H (HITOMI)
OBJECT_ID      = 2016-012A
CENTER_NAME    = EARTH
REF_FRAME      = TEME
TIME_SYSTEM    = UTC
MEAN_ELEMENT_THEORY = SGP/SGP4

EPOCH          = 2025-12-22T09:52:11.465184
MEAN_MOTION    = 15.09410453
ECCENTRICITY   = .00097403
INCLINATION    = 30.9984
RA_OF_ASC_NODE = 135.0173
ARG_OF_PERICENTER = 275.5969
MEAN_ANOMALY   = 84.3558

EPHEMERIS_TYPE = 0
CLASSIFICATION_TYPE = U
NORAD_CAT_ID   = 41337
ELEMENT_SET_NO = 999
REV_AT_EPOCH   = 54054
BSTAR          = .19986064E-3
MEAN_MOTION_DOT = .3371E-4
MEAN_MOTION_DDOT = 0

CCSDS_OMM_VERS = 2.0
CREATION_DATE  = 
ORIGINATOR     = 

OBJECT_NAME    = HXMT (HUIYAN)
OBJECT_ID      = 2017-034A
CENTER_NAME    = EARTH
REF_FRAME      = TEME
TIME_SYSTEM    = UTC
MEAN_ELEMENT_THEORY = SGP/SGP4

EPOCH          = 2025-12-22T14:32:42.686304
MEAN_MOTION    = 15.16342476
ECCENTRICITY   = .00310576
INCLINATION    = 43.0148
RA_OF_ASC_NODE = 84.8741
ARG_OF_PERICENTER = 108.2676
MEAN_ANOMALY   = 252.1556

EPHEMERIS_TYPE = 0
CLASSIFICATION_TYPE = U
NORAD_CAT_ID   = 42758
ELEMENT_SET_NO = 999
REV_AT_EPOCH   = 47083
BSTAR          = .30330505E-3
MEAN_MOTION_DOT = .5824E-4
MEAN_MOTION_DDOT = 0

CCSDS_OMM_VERS = 2.0
CREATION_DATE  = 
ORIGINATOR     = 

OBJECT_NAME    = CZ-2C R/B
OBJECT_ID      = 2018-054D
CENTER_NAME    = EARTH
REF_FRAME      = TEME
TIME_SYSTEM    = UTC
MEAN_ELEMENT_THEORY = SGP/SGP4

EPOCH          = 2025-12-22T14:55:15.852864
MEAN_MOTION    = 15.76065101
ECCENTRICITY   = .00149654
INCLINATION    = 35.1335
RA_OF_ASC_NODE = 113.7810
ARG_OF_PERICENTER = 242.8491
MEAN_ANOMALY   = 117.0717

EPHEMERIS_TYPE = 0
CLASSIFICATION_TYPE = U
NORAD_CAT_ID   = 43521
ELEMENT_SET_NO = 999
REV_AT_EPOCH   = 41661
BSTAR          = .68078535E-3
MEAN_MOTION_DOT = .112353E-2
MEAN_MOTION_DDOT = 0

CCSDS_OMM_VERS = 2.0
CREATION_DATE  = 
ORIGINATOR     = 

OBJECT_NAME    = SAOCOM 1A
OBJECT_ID      = 2018-076A
CENTER_NAME    = EARTH
REF_FRAME      = TEME
TIME_SYSTEM    = UTC
MEAN_ELEMENT_THEORY = SGP/SGP4

EPOCH          = 2025-12-22T06:12:04.419072
MEAN_MOTION    = 14.82139719
ECCENTRICITY   = .00013589
INCLINATION    = 97.8849
RA_OF_ASC_NODE = 180.5423
ARG_OF_PERICENTER = 89.4494
MEAN_ANOMALY   = 270.6875

EPHEMERIS_TYPE = 0
CLASSIFICATION_TYPE = U
NORAD_CAT_ID   = 43641
ELEMENT_SET_NO = 999
REV_AT_EPOCH   = 38989
BSTAR          = -.6271601E-5
MEAN_MOTION_DOT = -.102E-5
MEAN_MOTION_DDOT = 0

CCSDS_OMM_VERS = 2.0
CREATION_DATE  = 
ORIGINATOR     = 

OBJECT_NAME    = H-2A R/B
OBJECT_ID      = 2018-084L
CENTER_NAME    = EARTH
REF_FRAME      = TEME
TIME_SYSTEM    = UTC
MEAN_ELEMENT_THEORY = SGP/SGP4

EPOCH          = 2025-12-22T12:28:01.502112
MEAN_MOTION    = 15.37704918
ECCENTRICITY   = .00266889
INCLINATION    = 98.8765
RA_OF_ASC_NODE = 192.6278
ARG_OF_PERICENTER = 292.2454
MEAN_ANOMALY   = 67.5956

EPHEMERIS_TYPE = 0
CLASSIFICATION_TYPE = U
NORAD_CAT_ID   = 43682
ELEMENT_SET_NO = 999
REV_AT_EPOCH   = 39390
BSTAR          = .54245056E-3
MEAN_MOTION_DOT = .20249E-3
MEAN_MOTION_DDOT = 0

CCSDS_OMM_VERS = 2.0
CREATION_DATE  = 
ORIGINATOR     = 

OBJECT_NAME    = SAOCOM 1B
OBJECT_ID      = 2020-059A
CENTER_NAME    = EARTH
REF_FRAME      = TEME
TIME_SYSTEM    = UTC
MEAN_ELEMENT_THEORY = SGP/SGP4

EPOCH          = 2025-12-22T13:25:58.168128
MEAN_MOTION    = 14.82148216
ECCENTRICITY   = .00014548
INCLINATION    = 97.8834
RA_OF_ASC_NODE = 179.9385
ARG_OF_PERICENTER = 87.7634
MEAN_ANOMALY   = 272.3745

EPHEMERIS_TYPE = 0
CLASSIFICATION_TYPE = U
NORAD_CAT_ID   = 46265
ELEMENT_SET_NO = 999
REV_AT_EPOCH   = 28732
BSTAR          = .89463496E-4
MEAN_MOTION_DOT = .66E-5
MEAN_MOTION_DDOT = 0

CCSDS_OMM_VERS = 2.0
CREATION_DATE  = 
ORIGINATOR     = 

OBJECT_NAME    = CSS (TIANHE)
OBJECT_ID      = 2021-035A
CENTER_NAME    = EARTH
REF_FRAME      = TEME
TIME_SYSTEM    = UTC
MEAN_ELEMENT_THEORY = SGP/SGP4

EPOCH          = 2025-12-22T13:51:36.698976
MEAN_MOTION    = 15.59570921
ECCENTRICITY   = .00078575
INCLINATION    = 41.4686
RA_OF_ASC_NODE = 316.9649
ARG_OF_PERICENTER = 117.6887
MEAN_ANOMALY   = 242.4750

EPHEMERIS_TYPE = 0
CLASSIFICATION_TYPE = U
NORAD_CAT_ID   = 48274
ELEMENT_SET_NO = 999
REV_AT_EPOCH   = 26556
BSTAR          = .22463103E-3
MEAN_MOTION_DOT = .18108E-3
MEAN_MOTION_DDOT = 0

CCSDS_OMM_VERS = 2.0
CREATION_DATE  = 
ORIGINATOR     = 

OBJECT_NAME    = COSMOS 2550
OBJECT_ID      = 2021-056A
CENTER_NAME    = EARTH
REF_FRAME      = TEME
TIME_SYSTEM    = UTC
MEAN_ELEMENT_THEORY = SGP/SGP4

EPOCH          = 2025-12-19T21:34:23.418624
MEAN_MOTION    = 15.33838622
ECCENTRICITY   = .0008368
INCLINATION    = 67.1455
RA_OF_ASC_NODE = 282.2793
ARG_OF_PERICENTER = 269.6426
MEAN_ANOMALY   = 90.3770

EPHEMERIS_TYPE = 0
CLASSIFICATION_TYPE = U
NORAD_CAT_ID   = 48865
ELEMENT_SET_NO = 999
REV_AT_EPOCH   = 25122
BSTAR          = .8251269E-5
MEAN_MOTION_DOT = .8E-6
MEAN_MOTION_DDOT = 0

CCSDS_OMM_VERS = 2.0
CREATION_DATE  = 
ORIGINATOR     = 

OBJECT_NAME    = CZ-2C R/B
OBJECT_ID      = 2022-058K
CENTER_NAME    = EARTH
REF_FRAME      = TEME
TIME_SYSTEM    = UTC
MEAN_ELEMENT_THEORY = SGP/SGP4

EPOCH          = 2025-12-22T10:05:45.618432
MEAN_MOTION    = 15.48944336
ECCENTRICITY   = .00448191
INCLINATION    = 50.1915
RA_OF_ASC_NODE = 354.1627
ARG_OF_PERICENTER = 238.5127
MEAN_ANOMALY   = 121.1458

EPHEMERIS_TYPE = 0
CLASSIFICATION_TYPE = U
NORAD_CAT_ID   = 52794
ELEMENT_SET_NO = 999
REV_AT_EPOCH   = 19813
BSTAR          = .48122023E-3
MEAN_MOTION_DOT = .27205E-3
MEAN_MOTION_DDOT = 0

