SL-4 R/B                
1 39679U 14021B   25356.23991857  .00010708  00000+0  25619-3 0  9998
2 39679  51.6088 354.4168 0100977 180.4562 179.6345 15.36878688644352
ALOS-2                  
1 39766U 14029A   25356.54981370  .00001412  00000+0  19585-3 0  9993
2 39766  97.9230  91.2567 0001410  97.1247 263.0125 14.79475388625467
YAOGAN-29               
1 41038U 15069A   25356.60378576 -.00000080  00000+0 -31675-5 0  9996
2 41038  98.0205  19.8067 0000610 173.1464 186.9757 14.82890830544454
ASTRO-H (HITOMI)        
1 41337U 16012A   25356.41124381  .00003371  00000+0  19986-3 0  9992
2 41337  30.9984 135.0173 0009740 275.5969  84.3558 15.09410453540549
HXMT (HUIYAN)           
1 42758U 17034A   25356.60604961  .00005824  00000+0  30331-3 0  9995
2 42758  43.0148  84.8741 0031057 108.2676 252.1556 15.16342476470833
CZ-2C R/B               
1 43521U 18054D   25356.62171126  .00112353  00000+0  68079-3 0  9997
2 43521  35.1335 113.7810 0014965 242.8491 117.0717 15.76065101416617
SAOCOM 1A               
1 43641U 18076A   25356.25838448 -.00000102  00000+0 -62716-5 0  9994
2 43641  97.8849 180.5423 0001358  89.4494 270.6875 14.82139719389890
H-2A R/B                
1 43682U 18084L   25356.51946183  .00020249  00000+0  54245-3 0  9991
2 43682  98.8765 192.6278 0026688 292.2454  67.5956 15.37704918393908
SAOCOM 1B               
1 46265U 20059A   25356.55970102  .00000660  00000+0  89463-4 0  9994
2 46265  97.8834 179.9385 0001454  87.7634 272.3745 14.82148216287324
CSS (TIANHE)            
1 48274U 21035A   25356.57750809  .00018108  00000+0  22463-3 0  9995
2 48274  41.4686 316.9649 0007857 117.6887 242.4750 15.59570921265561
COSMOS 2550             
1 48865U 21056A   25353.89888216  .00000080  00000+0  82513-5 0  9994
2 48865  67.1455 282.2793 0008368 269.6426  90.3770 15.33838622251223
CZ-2C R/B               
1 52794U 22058K   25356.42066688  .00027205  00000+0  48122-3 0  9990
2 52794  50.1915 354.1627 0044819 238.5127 121.1458 15.48944336198133
